[
    {
        "Altitude(m)": 617719.7917695459,
        "Argument of Periapsis(deg)": 0.0,
        "Eccentricity": 0.0,
        "Inclination(deg)": 60.0,
        "Latitude(deg)": -41.10269648689429,
        "Longitude(deg)": -109.90540871636667,
        "Mean Anomaly(deg)": -130.9091,
        "RAAN(deg)": 140.0,
        "Satellite Name": "Test1 630",
        "Satellite Number": 630,
        "Semi-Major Axis(m)": 6980739.136638005,
        "Time(s)": 0
    },
    {
        "Altitude(m)": 617911.3279273764,
        "Argument of Periapsis(deg)": 0.00010418945913296404,
        "Eccentricity": 0.0,
        "Inclination(deg)": 60.0,
        "Latitude(deg)": -41.565889021213174,
        "Longitude(deg)": -109.4010026447502,
        "Mean Anomaly(deg)": -130.28899385453815,
        "RAAN(deg)": 139.99957995086024,
        "Satellite Name": "Test1 630",
        "Satellite Number": 630,
        "Semi-Major Axis(m)": 6980739.136638005,
        "Time(s)": 10
    },
    {
        "Altitude(m)": 618101.7388553263,
        "Argument of Periapsis(deg)": 0.0002083789182659281,
        "Eccentricity": 0.0,
        "Inclination(deg)": 60.0,
        "Latitude(deg)": -42.02640305532154,
        "Longitude(deg)": -108.8887891715297,
        "Mean Anomaly(deg)": -129.66888770907633,
        "RAAN(deg)": 139.99915990172053,
        "Satellite Name": "Test1 630",
        "Satellite Number": 630,
        "Semi-Major Axis(m)": 6980739.136638005,
        "Time(s)": 20
    },
    {
        "Altitude(m)": 618290.9515259872,
        "Argument of Periapsis(deg)": 0.00031256837739889213,
        "Eccentricity": 0.0,
        "Inclination(deg)": 60.0,
        "Latitude(deg)": -42.484158342414155,
        "Longitude(deg)": -108.36857361033499,
        "Mean Anomaly(deg)": -129.04878156361445,
        "RAAN(deg)": 139.99873985258074,
        "Satellite Name": "Test1 630",
        "Satellite Number": 630,
        "Semi-Major Axis(m)": 6980739.136638005,
        "Time(s)": 30
    },
    {
        "Altitude(m)": 618478.8932891756,
        "Argument of Periapsis(deg)": 0.0004167578365318562,
        "Eccentricity": 0.0,
        "Inclination(deg)": 60.0,
        "Latitude(deg)": -42.939072110620806,
        "Longitude(deg)": -107.84015748107564,
        "Mean Anomaly(deg)": -128.42867541815264,
        "RAAN(deg)": 139.998319803441,
        "Satellite Name": "Test1 630",
        "Satellite Number": 630,
        "Semi-Major Axis(m)": 6980739.136638005,
        "Time(s)": 40
    },
    {
        "Altitude(m)": 618665.4919035651,
        "Argument of Periapsis(deg)": 0.0005209472956648203,
        "Eccentricity": 0.0,
        "Inclination(deg)": 60.0,
        "Latitude(deg)": -43.39105898489196,
        "Longitude(deg)": -107.30333960785755,
        "Mean Anomaly(deg)": -127.80856927269083,
        "RAAN(deg)": 139.99789975430127,
        "Satellite Name": "Test1 630",
        "Satellite Number": 630,
        "Semi-Major Axis(m)": 6980739.136638005,
        "Time(s)": 50
    },
    {
        "Altitude(m)": 618850.6755681586,
        "Argument of Periapsis(deg)": 0.0006251367547977843,
        "Eccentricity": 0.0,
        "Inclination(deg)": 60.0,
        "Latitude(deg)": -43.84003090824482,
        "Longitude(deg)": -106.75791572377499,
        "Mean Anomaly(deg)": -127.18846312722897,
        "RAAN(deg)": 139.99747970516154,
        "Satellite Name": "Test1 630",
        "Satellite Number": 630,
        "Semi-Major Axis(m)": 6980739.136638005,
        "Time(s)": 60
    },
    {
        "Altitude(m)": 619034.3729535132,
        "Argument of Periapsis(deg)": 0.0007293262139307483,
        "Eccentricity": 0.0,
        "Inclination(deg)": 60.0,
        "Latitude(deg)": -44.285897062599865,
        "Longitude(deg)": -106.20367809732102,
        "Mean Anomaly(deg)": -126.56835698176721,
        "RAAN(deg)": 139.99705965602178,
        "Satellite Name": "Test1 630",
        "Satellite Number": 630,
        "Semi-Major Axis(m)": 6980739.136638005,
        "Time(s)": 70
    },
    {
        "Altitude(m)": 619216.5132327445,
        "Argument of Periapsis(deg)": 0.0008335156730637124,
        "Eccentricity": 0.0,
        "Inclination(deg)": 60.0,
        "Latitude(deg)": -44.72856378947453,
        "Longitude(deg)": -105.64041669527617,
        "Mean Anomaly(deg)": -125.94825083630533,
        "RAAN(deg)": 139.99663960688204,
        "Satellite Name": "Test1 630",
        "Satellite Number": 630,
        "Semi-Major Axis(m)": 6980739.136638005,
        "Time(s)": 80
    },
    {
        "Altitude(m)": 619397.0261123049,
        "Argument of Periapsis(deg)": 0.0009377051321966765,
        "Eccentricity": 0.0,
        "Inclination(deg)": 60.0,
        "Latitude(deg)": -45.16793451083642,
        "Longitude(deg)": -105.06791885843288,
        "Mean Anomaly(deg)": -125.32814469084353,
        "RAAN(deg)": 139.9962195577423,
        "Satellite Name": "Test1 630",
        "Satellite Number": 630,
        "Semi-Major Axis(m)": 6980739.136638005,
        "Time(s)": 90
    },
    {
        "Altitude(m)": 619575.841862474,
        "Argument of Periapsis(deg)": 0.0010418945913296407,
        "Eccentricity": 0.0,
        "Inclination(deg)": 60.0,
        "Latitude(deg)": -45.60390965045954,
        "Longitude(deg)": -104.48596900525241,
        "Mean Anomaly(deg)": -124.70803854538171,
        "RAAN(deg)": 139.99579950860257,
        "Satellite Name": "Test1 630",
        "Satellite Number": 630,
        "Semi-Major Axis(m)": 6980739.136638005,
        "Time(s)": 100
    },
    {
        "Altitude(m)": 619752.8913475946,
        "Argument of Periapsis(deg)": 0.0011460840504626045,
        "Eccentricity": 0.0,
        "Inclination(deg)": 60.0,
        "Latitude(deg)": -46.036386556165354,
        "Longitude(deg)": -103.8943498786773,
        "Mean Anomaly(deg)": -124.08793239991984,
        "RAAN(deg)": 139.9953794594628,
        "Satellite Name": "Test1 630",
        "Satellite Number": 630,
        "Semi-Major Axis(m)": 6980739.136638005,
        "Time(s)": 110
    },
    {
        "Altitude(m)": 619928.1060560406,
        "Argument of Periapsis(deg)": 0.0012502735095955685,
        "Eccentricity": 0.0,
        "Inclination(deg)": 60.0,
        "Latitude(deg)": -46.4652594233838,
        "Longitude(deg)": -103.29284231280097,
        "Mean Anomaly(deg)": -123.46782625445802,
        "RAAN(deg)": 139.99495941032308,
        "Satellite Name": "Test1 630",
        "Satellite Number": 630,
        "Semi-Major Axis(m)": 6980739.136638005,
        "Time(s)": 120
    },
    {
        "Altitude(m)": 620101.4181298647,
        "Argument of Periapsis(deg)": 0.0013544629687285324,
        "Eccentricity": 0.0,
        "Inclination(deg)": 60.0,
        "Latitude(deg)": -46.8904192205143,
        "Longitude(deg)": -102.68122503483578,
        "Mean Anomaly(deg)": -122.84772010899617,
        "RAAN(deg)": 139.99453936118334,
        "Satellite Name": "Test1 630",
        "Satellite Number": 630,
        "Semi-Major Axis(m)": 6980739.136638005,
        "Time(s)": 130
    },
    {
        "Altitude(m)": 620272.7603941604,
        "Argument of Periapsis(deg)": 0.0014586524278614966,
        "Eccentricity": 0.0,
        "Inclination(deg)": 60.0,
        "Latitude(deg)": -47.31175361661994,
        "Longitude(deg)": -102.05927601791885,
        "Mean Anomaly(deg)": -122.22761396353435,
        "RAAN(deg)": 139.9941193120436,
        "Satellite Name": "Test1 630",
        "Satellite Number": 630,
        "Semi-Major Axis(m)": 6980739.136638005,
        "Time(s)": 140
    },
    {
        "Altitude(m)": 620442.0663860743,
        "Argument of Periapsis(deg)": 0.0015628418869944607,
        "Eccentricity": 0.0,
        "Inclination(deg)": 60.0,
        "Latitude(deg)": -47.72914691205079,
        "Longitude(deg)": -101.42677236175219,
        "Mean Anomaly(deg)": -121.60750781807248,
        "RAAN(deg)": 139.99369926290385,
        "Satellite Name": "Test1 630",
        "Satellite Number": 630,
        "Semi-Major Axis(m)": 6980739.136638005,
        "Time(s)": 150
    },
    {
        "Altitude(m)": 620609.2703835407,
        "Argument of Periapsis(deg)": 0.0016670313461274247,
        "Eccentricity": 0.0,
        "Inclination(deg)": 60.0,
        "Latitude(deg)": -48.14247997264566,
        "Longitude(deg)": -100.78349021677812,
        "Mean Anomaly(deg)": -120.98740167261072,
        "RAAN(deg)": 139.99327921376414,
        "Satellite Name": "Test1 630",
        "Satellite Number": 630,
        "Semi-Major Axis(m)": 6980739.136638005,
        "Time(s)": 160
    },
    {
        "Altitude(m)": 620774.307433609,
        "Argument of Periapsis(deg)": 0.0017712208052603888,
        "Eccentricity": 0.0,
        "Inclination(deg)": 60.0,
        "Latitude(deg)": -48.551630168230716,
        "Longitude(deg)": -100.12920626763764,
        "Mean Anomaly(deg)": -120.36729552714885,
        "RAAN(deg)": 139.99285916462438,
        "Satellite Name": "Test1 630",
        "Satellite Number": 630,
        "Semi-Major Axis(m)": 6980739.136638005,
        "Time(s)": 170
    },
    {
        "Altitude(m)": 620937.113380468,
        "Argument of Periapsis(deg)": 0.001875410264393353,
        "Eccentricity": 0.0,
        "Inclination(deg)": 60.0,
        "Latitude(deg)": -48.95647131619823,
        "Longitude(deg)": -99.46369775306701,
        "Mean Anomaly(deg)": -119.7471893816871,
        "RAAN(deg)": 139.99243911548464,
        "Satellite Name": "Test1 630",
        "Satellite Number": 630,
        "Semi-Major Axis(m)": 6980739.136638005,
        "Time(s)": 180
    },
    {
        "Altitude(m)": 621097.6248930756,
        "Argument of Periapsis(deg)": 0.0019795997235263173,
        "Eccentricity": 0.0,
        "Inclination(deg)": 60.0,
        "Latitude(deg)": -49.356873631021315,
        "Longitude(deg)": -98.78674253801002,
        "Mean Anomaly(deg)": -119.12708323622522,
        "RAAN(deg)": 139.99201906634488,
        "Satellite Name": "Test1 630",
        "Satellite Number": 630,
        "Semi-Major Axis(m)": 6980739.136638005,
        "Time(s)": 190
    }
]